INNOSAT 3 (RS92S0)      
1 64894U 25155U   26177.19081172  .00041182  00000+0  88764-3 0  9992
2 64894  97.4481 148.9053 0007703 130.7061 229.4857 15.44444413 82350
KNACKSAT-2              
1 67683U 98067XZ  26176.42038817  .00054321  00000+0  64307-3 0  9992
2 67683  51.6277 253.0425 0008709 252.4154 107.5888 15.60671397 21564
