OBJECT_NAME,OBJECT_ID,EPOCH,MEAN_MOTION,ECCENTRICITY,INCLINATION,RA_OF_ASC_NODE,ARG_OF_PERICENTER,MEAN_ANOMALY,EPHEMERIS_TYPE,CLASSIFICATION_TYPE,NORAD_CAT_ID,ELEMENT_SET_NO,REV_AT_EPOCH,BSTAR,MEAN_MOTION_DOT,MEAN_MOTION_DDOT
INNOSAT 3 (RS92S0),2025-155U,2026-06-26T04:34:46.132608,15.44444413,.0007703,97.4481,148.9053,130.7061,229.4857,0,U,64894,999,8235,.88764E-3,.41182E-3,0
KNACKSAT-2,1998-067XZ,2026-06-25T10:05:21.537888,15.60671397,.0008709,51.6277,253.0425,252.4154,107.5888,0,U,67683,999,2156,.64307E-3,.54321E-3,0
